CUTE-1 (CO-55)          
1 27844U 03031E   26032.94593478  .00000371  00000+0  17973-3 0  9994
2 27844  98.6771  43.1922 0008966 213.0400 147.0219 14.24233978172428
CUBESAT XI-IV (CO-57)   
1 27848U 03031J   26032.93744987  .00000310  00000+0  15540-3 0  9991
2 27848  98.6800  43.0050 0008619 232.6069 127.4325 14.23533904172138
CUBESAT XI-V            
1 28895U 05043F   26032.96642165  .00001738  00000+0  28391-3 0  9990
2 28895  98.2769 185.9339 0013152 274.7638  85.2066 14.72150132 81857
CUTE-1.7+APD II (CO-65) 
1 32785U 08021C   26032.95071631  .00006566  00000+0  43248-3 0  9997
2 32785  97.8145  11.8125 0010660 122.6084 237.6174 15.07826089964808
CANX-2                  
1 32790U 08021H   26032.92744390  .00004369  00000+0  31713-3 0  9992
2 32790  97.8507  10.3034 0012128 133.2526 226.9714 15.04383609964465
SEEDS II (CO-66)        
1 32791U 08021J   26032.97495389  .00017313  00000+0  64614-3 0  9998
2 32791  97.7478  24.9765 0005613  76.9082 283.2783 15.27457336966610
SWISSCUBE               
1 35932U 09051B   26032.68844085  .00001296  00000+0  26747-3 0  9999
2 35932  98.4135 298.1874 0005552 278.0146  82.0424 14.62149582869351
BEESAT-1                
1 35933U 09051C   26032.69797289  .00001223  00000+0  25682-3 0  9991
2 35933  98.4062 298.1092 0004205 296.8487  63.2283 14.61439428869391
ITUPSAT1                
1 35935U 09051E   26032.70818776  .00001118  00000+0  24215-3 0  9994
2 35935  98.4150 297.4497 0006522 306.0866  53.9729 14.60181771868968
TISAT 1                 
1 36799U 10035E   26032.77481281  .00019713  00000+0  77193-3 0  9994
2 36799  98.0630 328.0166 0003748  42.6851 317.4676 15.25846088847017
AEROCUBE 4.5A           
1 38767U 12048K   26032.66664787  .00074020  00000+0  10024-2 0  9990
2 38767  64.6399 144.8497 0051636 221.7042 138.0160 15.55662523351374
STRAND-1                
1 39090U 13009E   26032.91588746  .00000389  00000+0  14529-3 0  9998
2 39090  98.3853 216.5034 0007572 276.0610  83.9714 14.37060413677633
BRITE-AUSTRIA           
1 39091U 13009F   26032.94139533  .00000236  00000+0  95100-4 0  9994
2 39091  98.3918 215.7496 0009107 285.8613  74.1570 14.36473065677638
NEE-01 PEGASO           
1 39151U 13018B   26032.90984435  .00003249  00000+0  31971-3 0  9998
2 39151  98.0989 172.8428 0011937 247.9034 112.0917 14.92785885690515
POPACS 2                
1 39269U 13055E   26032.70800358  .00015475  00000+0  27805-3 0  9993
2 39269  80.9962 298.7589 0435131 267.8066  87.3277 14.86216003643058
POPACS 3                
1 39270U 13055F   26032.40034115  .00007113  00000+0  17100-3 0  9999
2 39270  81.0023  16.0908 0564551 122.6689 243.0273 14.53005038618815
