[{"OBJECT_NAME":"CUTE-1 (CO-55)","OBJECT_ID":"2003-031E","EPOCH":"2026-02-01T22:42:08.764992","MEAN_MOTION":14.24233978,"ECCENTRICITY":0.00089666,"INCLINATION":98.6771,"RA_OF_ASC_NODE":43.1922,"ARG_OF_PERICENTER":213.04,"MEAN_ANOMALY":147.0219,"EPHEMERIS_TYPE":0,"CLASSIFICATION_TYPE":"U","NORAD_CAT_ID":27844,"ELEMENT_SET_NO":999,"REV_AT_EPOCH":17242,"BSTAR":0.00017972633,"MEAN_MOTION_DOT":3.71e-6,"MEAN_MOTION_DDOT":0},{"OBJECT_NAME":"CUBESAT XI-IV (CO-57)","OBJECT_ID":"2003-031J","EPOCH":"2026-02-01T22:29:55.668768","MEAN_MOTION":14.23533904,"ECCENTRICITY":0.00086198,"INCLINATION":98.68,"RA_OF_ASC_NODE":43.005,"ARG_OF_PERICENTER":232.6069,"MEAN_ANOMALY":127.4325,"EPHEMERIS_TYPE":0,"CLASSIFICATION_TYPE":"U","NORAD_CAT_ID":27848,"ELEMENT_SET_NO":999,"REV_AT_EPOCH":17213,"BSTAR":0.00015539674,"MEAN_MOTION_DOT":3.1e-6,"MEAN_MOTION_DDOT":0},{"OBJECT_NAME":"CUBESAT XI-V","OBJECT_ID":"2005-043F","EPOCH":"2026-02-01T23:11:38.830560","MEAN_MOTION":14.72150132,"ECCENTRICITY":0.00131523,"INCLINATION":98.2769,"RA_OF_ASC_NODE":185.9339,"ARG_OF_PERICENTER":274.7638,"MEAN_ANOMALY":85.2066,"EPHEMERIS_TYPE":0,"CLASSIFICATION_TYPE":"U","NORAD_CAT_ID":28895,"ELEMENT_SET_NO":999,"REV_AT_EPOCH":8185,"BSTAR":0.00028390647,"MEAN_MOTION_DOT":1.738e-5,"MEAN_MOTION_DDOT":0},{"OBJECT_NAME":"CUTE-1.7+APD II (CO-65)","OBJECT_ID":"2008-021C","EPOCH":"2026-02-01T22:49:01.889184","MEAN_MOTION":15.07826089,"ECCENTRICITY":0.00106606,"INCLINATION":97.8145,"RA_OF_ASC_NODE":11.8125,"ARG_OF_PERICENTER":122.6084,"MEAN_ANOMALY":237.6174,"EPHEMERIS_TYPE":0,"CLASSIFICATION_TYPE":"U","NORAD_CAT_ID":32785,"ELEMENT_SET_NO":999,"REV_AT_EPOCH":96480,"BSTAR":0.00043248023,"MEAN_MOTION_DOT":6.566e-5,"MEAN_MOTION_DDOT":0},{"OBJECT_NAME":"CANX-2","OBJECT_ID":"2008-021H","EPOCH":"2026-02-01T22:15:31.152960","MEAN_MOTION":15.04383609,"ECCENTRICITY":0.00121285,"INCLINATION":97.8507,"RA_OF_ASC_NODE":10.3034,"ARG_OF_PERICENTER":133.2526,"MEAN_ANOMALY":226.9714,"EPHEMERIS_TYPE":0,"CLASSIFICATION_TYPE":"U","NORAD_CAT_ID":32790,"ELEMENT_SET_NO":999,"REV_AT_EPOCH":96446,"BSTAR":0.00031713113,"MEAN_MOTION_DOT":4.369e-5,"MEAN_MOTION_DDOT":0},{"OBJECT_NAME":"SEEDS II (CO-66)","OBJECT_ID":"2008-021J","EPOCH":"2026-02-01T23:23:56.016096","MEAN_MOTION":15.27457336,"ECCENTRICITY":0.00056132,"INCLINATION":97.7478,"RA_OF_ASC_NODE":24.9765,"ARG_OF_PERICENTER":76.9082,"MEAN_ANOMALY":283.2783,"EPHEMERIS_TYPE":0,"CLASSIFICATION_TYPE":"U","NORAD_CAT_ID":32791,"ELEMENT_SET_NO":999,"REV_AT_EPOCH":96661,"BSTAR":0.00064614395,"MEAN_MOTION_DOT":0.00017313,"MEAN_MOTION_DDOT":0},{"OBJECT_NAME":"SWISSCUBE","OBJECT_ID":"2009-051B","EPOCH":"2026-02-01T16:31:21.289440","MEAN_MOTION":14.62149582,"ECCENTRICITY":0.0005552,"INCLINATION":98.4135,"RA_OF_ASC_NODE":298.1874,"ARG_OF_PERICENTER":278.0146,"MEAN_ANOMALY":82.0424,"EPHEMERIS_TYPE":0,"CLASSIFICATION_TYPE":"U","NORAD_CAT_ID":35932,"ELEMENT_SET_NO":999,"REV_AT_EPOCH":86935,"BSTAR":0.00026747253,"MEAN_MOTION_DOT":1.296e-5,"MEAN_MOTION_DDOT":0},{"OBJECT_NAME":"BEESAT-1","OBJECT_ID":"2009-051C","EPOCH":"2026-02-01T16:45:04.857696","MEAN_MOTION":14.61439428,"ECCENTRICITY":0.00042052,"INCLINATION":98.4062,"RA_OF_ASC_NODE":298.1092,"ARG_OF_PERICENTER":296.8487,"MEAN_ANOMALY":63.2283,"EPHEMERIS_TYPE":0,"CLASSIFICATION_TYPE":"U","NORAD_CAT_ID":35933,"ELEMENT_SET_NO":999,"REV_AT_EPOCH":86939,"BSTAR":0.00025681605,"MEAN_MOTION_DOT":1.223e-5,"MEAN_MOTION_DDOT":0},{"OBJECT_NAME":"ITUPSAT1","OBJECT_ID":"2009-051E","EPOCH":"2026-02-01T16:59:47.422464","MEAN_MOTION":14.60181771,"ECCENTRICITY":0.00065224,"INCLINATION":98.415,"RA_OF_ASC_NODE":297.4497,"ARG_OF_PERICENTER":306.0866,"MEAN_ANOMALY":53.9729,"EPHEMERIS_TYPE":0,"CLASSIFICATION_TYPE":"U","NORAD_CAT_ID":35935,"ELEMENT_SET_NO":999,"REV_AT_EPOCH":86896,"BSTAR":0.00024214894,"MEAN_MOTION_DOT":1.118e-5,"MEAN_MOTION_DDOT":0},{"OBJECT_NAME":"TISAT 1","OBJECT_ID":"2010-035E","EPOCH":"2026-02-01T18:35:43.826784","MEAN_MOTION":15.25846088,"ECCENTRICITY":0.00037481,"INCLINATION":98.063,"RA_OF_ASC_NODE":328.0166,"ARG_OF_PERICENTER":42.6851,"MEAN_ANOMALY":317.4676,"EPHEMERIS_TYPE":0,"CLASSIFICATION_TYPE":"U","NORAD_CAT_ID":36799,"ELEMENT_SET_NO":999,"REV_AT_EPOCH":84701,"BSTAR":0.00077193431,"MEAN_MOTION_DOT":0.00019713,"MEAN_MOTION_DDOT":0},{"OBJECT_NAME":"AEROCUBE 4.5A","OBJECT_ID":"2012-048K","EPOCH":"2026-02-01T15:59:58.375968","MEAN_MOTION":15.55662523,"ECCENTRICITY":0.00516367,"INCLINATION":64.6399,"RA_OF_ASC_NODE":144.8497,"ARG_OF_PERICENTER":221.7042,"MEAN_ANOMALY":138.016,"EPHEMERIS_TYPE":0,"CLASSIFICATION_TYPE":"U","NORAD_CAT_ID":38767,"ELEMENT_SET_NO":999,"REV_AT_EPOCH":35137,"BSTAR":0.0010024228,"MEAN_MOTION_DOT":0.0007402,"MEAN_MOTION_DDOT":0},{"OBJECT_NAME":"STRAND-1","OBJECT_ID":"2013-009E","EPOCH":"2026-02-01T21:58:52.676544","MEAN_MOTION":14.37060413,"ECCENTRICITY":0.00075724,"INCLINATION":98.3853,"RA_OF_ASC_NODE":216.5034,"ARG_OF_PERICENTER":276.061,"MEAN_ANOMALY":83.9714,"EPHEMERIS_TYPE":0,"CLASSIFICATION_TYPE":"U","NORAD_CAT_ID":39090,"ELEMENT_SET_NO":999,"REV_AT_EPOCH":67763,"BSTAR":0.00014528948,"MEAN_MOTION_DOT":3.89e-6,"MEAN_MOTION_DDOT":0},{"OBJECT_NAME":"BRITE-AUSTRIA","OBJECT_ID":"2013-009F","EPOCH":"2026-02-01T22:35:36.556512","MEAN_MOTION":14.36473065,"ECCENTRICITY":0.00091078,"INCLINATION":98.3918,"RA_OF_ASC_NODE":215.7496,"ARG_OF_PERICENTER":285.8613,"MEAN_ANOMALY":74.157,"EPHEMERIS_TYPE":0,"CLASSIFICATION_TYPE":"U","NORAD_CAT_ID":39091,"ELEMENT_SET_NO":999,"REV_AT_EPOCH":67763,"BSTAR":9.5100183e-5,"MEAN_MOTION_DOT":2.36e-6,"MEAN_MOTION_DDOT":0},{"OBJECT_NAME":"NEE-01 PEGASO","OBJECT_ID":"2013-018B","EPOCH":"2026-02-01T21:50:10.551840","MEAN_MOTION":14.92785885,"ECCENTRICITY":0.00119376,"INCLINATION":98.0989,"RA_OF_ASC_NODE":172.8428,"ARG_OF_PERICENTER":247.9034,"MEAN_ANOMALY":112.0917,"EPHEMERIS_TYPE":0,"CLASSIFICATION_TYPE":"U","NORAD_CAT_ID":39151,"ELEMENT_SET_NO":999,"REV_AT_EPOCH":69051,"BSTAR":0.00031971033,"MEAN_MOTION_DOT":3.249e-5,"MEAN_MOTION_DDOT":0},{"OBJECT_NAME":"POPACS 2","OBJECT_ID":"2013-055E","EPOCH":"2026-02-01T16:59:31.509312","MEAN_MOTION":14.86216003,"ECCENTRICITY":0.04351311,"INCLINATION":80.9962,"RA_OF_ASC_NODE":298.7589,"ARG_OF_PERICENTER":267.8066,"MEAN_ANOMALY":87.3277,"EPHEMERIS_TYPE":0,"CLASSIFICATION_TYPE":"U","NORAD_CAT_ID":39269,"ELEMENT_SET_NO":999,"REV_AT_EPOCH":64305,"BSTAR":0.00027805279,"MEAN_MOTION_DOT":0.00015475,"MEAN_MOTION_DDOT":0},{"OBJECT_NAME":"POPACS 3","OBJECT_ID":"2013-055F","EPOCH":"2026-02-01T09:36:29.475360","MEAN_MOTION":14.53005038,"ECCENTRICITY":0.0564551,"INCLINATION":81.0023,"RA_OF_ASC_NODE":16.0908,"ARG_OF_PERICENTER":122.6689,"MEAN_ANOMALY":243.0273,"EPHEMERIS_TYPE":0,"CLASSIFICATION_TYPE":"U","NORAD_CAT_ID":39270,"ELEMENT_SET_NO":999,"REV_AT_EPOCH":61881,"BSTAR":0.00017099855,"MEAN_MOTION_DOT":7.113e-5,"MEAN_MOTION_DDOT":0}]
